[{"OBJECT_NAME":"STARLINK-5650","OBJECT_ID":"2023-015AC","EPOCH":"2026-03-09T23:48:54.157536","MEAN_MOTION":15.0253492,"ECCENTRICITY":0.00013819,"INCLINATION":43.0058,"RA_OF_ASC_NODE":323.9882,"ARG_OF_PERICENTER":266.1697,"MEAN_ANOMALY":93.8987,"EPHEMERIS_TYPE":0,"CLASSIFICATION_TYPE":"U","NORAD_CAT_ID":55475,"ELEMENT_SET_NO":999,"REV_AT_EPOCH":17080,"BSTAR":1.3792429e-5,"MEAN_MOTION_DOT":-1.7e-7,"MEAN_MOTION_DDOT":0},{"OBJECT_NAME":"SL-3 R\/B","OBJECT_ID":"1982-039B","EPOCH":"2026-03-09T22:07:28.779168","MEAN_MOTION":15.10083319,"ECCENTRICITY":0.00297187,"INCLINATION":81.1583,"RA_OF_ASC_NODE":215.6942,"ARG_OF_PERICENTER":323.7089,"MEAN_ANOMALY":36.212,"EPHEMERIS_TYPE":0,"CLASSIFICATION_TYPE":"U","NORAD_CAT_ID":13154,"ELEMENT_SET_NO":999,"REV_AT_EPOCH":38167,"BSTAR":0.00020843464,"MEAN_MOTION_DOT":3.451e-5,"MEAN_MOTION_DDOT":0}]
